COSMOS 2534 [GLONASS-M] 
1 44299U 19030A   26180.66029704  .00000085  00000+0  00000+0 0  9993
2 44299  64.3700 192.1964 0013517 275.0224  73.0621  2.13102425 55189
BEIDOU-3 IGSO-2         
1 44337U 19035A   26182.83320663 -.00000101  00000+0  00000+0 0  9990
2 44337  55.2497 158.7338 0039544 216.2293 324.0593  1.00262179 25810
NAVSTAR 78 (USA 293)    
1 44506U 19056A   26182.84551479 -.00000081  00000+0  00000+0 0  9990
2 44506  55.6295 330.5609 0062756 197.8313 333.9324  2.00570204 50368
BEIDOU-3 M24            
1 44542U 19061A   26181.12933678  .00000071  00000+0  00000+0 0  9999
2 44542  54.3970 182.2910 0008559 358.7023   1.3089  1.86229317 46030
BEIDOU-3 M23            
1 44543U 19061B   26181.79651252  .00000070  00000+0  00000+0 0  9997
2 44543  54.3961 182.2371 0005841 339.8023  19.0264  1.86227617 46046
EUTELSAT 5 WEST B       
1 44624U 19067A   26182.86869880 -.00000031  00000+0  00000+0 0  9998
2 44624   0.0708 330.0335 0003348 131.5809 126.0367  1.00272909 24583
BEIDOU-3 M22            
1 44793U 19078A   26182.58026267 -.00000063  00000+0  00000+0 0  9995
2 44793  53.9217 299.3211 0006050  50.4418 309.6293  1.86227629 44919
BEIDOU-3 M21            
1 44794U 19078B   26178.96140830 -.00000087  00000+0  00000+0 0  9992
2 44794  53.8982 299.4091 0003978  49.1157 310.9195  1.86227959 44851
COSMOS 2544 [GLONASS-M] 
1 44850U 19088A   26182.57646396 -.00000012  00000+0  00000+0 0  9994
2 44850  65.5732  73.2504 0012721 256.6997 103.2222  2.13103143 51027
BEIDOU-3 M19            
1 44864U 19090A   26180.56083194 -.00000055  00000+0  00000+0 0  9997
2 44864  56.5689  62.3817 0017294 297.3724 252.4111  1.86231770 44460
BEIDOU-3 M20            
1 44865U 19090B   26180.41039279 -.00000056  00000+0  00000+0 0  9998
2 44865  56.5707  62.4211 0015146 311.8679 226.6408  1.86231892 44441
BEIDOU-3 G2             
1 45344U 20017A   26183.17075174 -.00000132  00000+0  00000+0 0  9997
2 45344   2.8933  47.5621 0002584  44.6846 329.5323  1.00271660 23413
COSMOS 2545 [GLONASS-M] 
1 45358U 20018A   26180.42510890 -.00000068  00000+0  00000+0 0  9995
2 45358  64.3471 311.9885 0008865 229.6303 130.2863  2.13102698 48927
BEIDOU-3 G3             
1 45807U 20040A   26183.24804200 -.00000344  00000+0  00000+0 0  9990
2 45807   2.4826  67.4785 0002474 332.9160  79.7571  1.00271877 22223
NAVSTAR 79 (USA 304)    
1 45854U 20041A   26180.70415300 -.00000068  00000+0  00000+0 0  9993
2 45854  56.6686  28.4552 0065566 209.6569 153.6928  2.00558736 44295
GALAXY 30 (G-30)        
1 46114U 20056C   26182.98755284  .00000047  00000+0  00000+0 0  9995
2 46114   0.0143  48.5564 0002214  51.2107  50.7794  1.00273016 21446
COSMOS 2547 [GLONASS-K] 
1 46805U 20075A   26181.55327406  .00000081  00000+0  00000+0 0  9994
2 46805  64.6009 192.0293 0009399 239.7356 120.2111  2.13100012 44197
NAVSTAR 80 (USA 309)    
1 46826U 20078A   26182.27330976  .00000067  00000+0  00000+0 0  9990
2 46826  53.9787 210.2073 0074038 207.5025 185.7090  2.00565158 41798
NAVSTAR 81 (USA 319)    
1 48859U 21054A   26183.02363622 -.00000082  00000+0  00000+0 0  9999
2 48859  55.1671 331.8638 0025946 228.3850 172.9360  2.00568335 37052
QZS-1R (MICHIBIKI-1R)   
1 49336U 21096A   26182.60904943 -.00000278  00000+0  00000+0 0  9993
2 49336  37.4893  79.3703 0756025 272.0403 280.4502  1.00251244 17157
GSAT0223 (GALILEO 27)   
1 49809U 21116A   26180.89425034 -.00000086  00000+0  00000+0 0  9996
2 49809  57.1569 341.3321 0001744 184.5600 173.8860  1.70476494 28399
GSAT0224 (GALILEO 28)   
1 49810U 21116B   26181.59302091 -.00000084  00000+0  00000+0 0  9991
2 49810  57.1567 341.3123 0001428 163.7362  16.1903  1.70476570 28439
COSMOS 2557 [GLONASS-K] 
1 52984U 22075A   26180.30969183 -.00000070  00000+0  00000+0 0  9996
2 52984  64.2907 314.0587 0010591 272.5686  87.3025  2.13102382 30974
COSMOS 2559 [GLONASS-K] 
1 54031U 22130A   26182.94492828 -.00000053  00000+0  00000+0 0  9993
2 54031  64.2618 314.0485 0012853 179.6004 180.4022  2.13101806 29003
COSMOS 2564 [GLONASS-M] 
1 54377U 22161A   26182.78812472  .00000080  00000+0  00000+0 0  9992
2 54377  64.7430 192.2270 0012266 225.1049 134.8302  2.13102081 27946
NAVSTAR 82 (USA 343)    
1 55268U 23009A   26182.76388889  .00000040  00000+0  00000+0 0  9998
2 55268  55.1238 147.9465 0006262 318.3854 293.8670  2.00571084 25533
BEIDOU-3 G4             
1 56564U 23066A   26183.25388056 -.00000271  00000+0  00000+0 0  9999
2 56564   0.4715 335.2391 0005016 176.5683 359.9085  1.00268973 11545
NVS-01 (IRNSS-1J)       
1 56759U 23076A   26183.25180054 -.00000324  00000+0  00000+0 0  9993
2 56759   2.1325 243.6702 0002916   8.9125 247.9352  1.00272092 11269
COSMOS 2569 [GLONASS-K2]
1 57517U 23114A   26181.39268046 -.00000020  00000+0  00000+0 0  9993
2 57517  65.3095  72.1752 0010196 296.5286  63.4269  2.13103831 22549
BEIDOU-3 M28            
1 58654U 23207A   26180.11237985 -.00000061  00000+0  00000+0 0  9991
2 58654  55.7632  61.9007 0002902 354.1040   5.9493  1.86229901 17063
BEIDOU-3 M26            
1 58655U 23207B   26179.37291324 -.00000068  00000+0  00000+0 0  9992
2 58655  55.7647  61.9122 0002601 322.6839  37.3509  1.86229915 17039
